ONEWEB-0033             
1 45142U 20008M   25150.42542396  .00000679  00000+0  19091-2 0  9997
2 45142  87.8804 112.6120 0002153  88.3491 271.7883 13.10371569258085
ONEWEB-0035             
1 45143U 20008N   25150.60882980 -.00000535  00000+0 -15691-2 0  9999
2 45143  87.8811 112.5749 0002088  86.2555 273.8811 13.10372205257839
ONEWEB-0036             
1 45144U 20008P   25150.44615558 -.00000261  00000+0 -78341-3 0  9995
2 45144  87.8804 112.5504 0002074  78.3287 281.8073 13.10370947258246
ONEWEB-0038             
1 45145U 20008Q   25150.60670527  .00000596  00000+0  16565-2 0  9999
2 45145  87.8832  97.3099 0001123  73.8179 286.3072 13.10938175260189
ONEWEB-0039             
1 45146U 20008R   25150.58145490  .00000191  00000+0  51192-3 0  9990
2 45146  87.8812 112.5463 0001519  71.9216 288.2077 13.10373262258052
ONEWEB-0040             
1 45147U 20008S   25150.42210657  .00000695  00000+0  19539-2 0  9999
2 45147  87.8817 112.6019 0001976  82.4235 277.7117 13.10372937257731
ONEWEB-0043             
1 45149U 20008U   25150.42376556  .00000682  00000+0  19181-2 0  9991
2 45149  87.8809 112.5894 0001929  70.6655 289.4680 13.10372490258052
ONEWEB-0044             
1 45150U 20008V   25150.37561293 -.00000512  00000+0 -15029-2 0  9992
2 45150  87.8808 112.5913 0001952  76.7794 283.3551 13.10372150258347
